ONEWEB-0613             
1 56071U 23043AB  24111.90960991  .00000194  00000+0  48049-3 0  9994
2 56071  87.9037  55.8754 0001590  86.3189 273.8123 13.15547443 52920
ONEWEB-0630             
1 56072U 23043AC  24111.90484700  .00000119  00000+0  28095-3 0  9990
2 56072  87.9033  55.8695 0001707  92.3472 267.7854 13.15547069 52919
ONEWEB-0632             
1 56073U 23043AD  24111.90008751  .00000151  00000+0  36679-3 0  9992
2 56073  87.9033  55.8893 0001648  70.6721 289.4587 13.15547089 52916
ONEWEB-0633             
1 56074U 23043AE  24111.89375897  .00000074  00000+0  16272-3 0  9990
2 56074  87.9028  55.8743 0001809 100.3087 259.8247 13.15548825 53802
ONEWEB-0634             
1 56075U 23043AF  24111.80343154 -.00000107  00000+0 -31730-3 0  9998
2 56075  87.9036  55.8993 0002258  86.5265 273.6123 13.15547552 52870
ONEWEB-0635             
1 56076U 23043AG  24111.87474078 -.00000099  00000+0 -29763-3 0  9999
2 56076  87.9032  55.9412 0001691  68.9839 291.1472 13.15547496 52919
ONEWEB-0636             
1 56077U 23043AH  24111.86681819 -.00000128  00000+0 -37348-3 0  9993
2 56077  87.9035  55.9123 0001752  69.1719 290.9599 13.15547560 52896
ONEWEB-0637             
1 56078U 23043AJ  24111.86048651 -.00000066  00000+0 -21011-3 0  9996
2 56078  87.9038  55.8893 0001801  67.6358 292.4963 13.15549312 52912
